QZS-3 (MICHIBIKI-3)     
1 42917U 17048A   26170.27652112 -.00000354  00000+0  00000+0 0  9996
2 42917   0.0641 165.9716 0001937 277.2533  50.8206  1.00275135 32280
AMAZONAS 5              
1 42934U 17053A   26170.24338627 -.00000289  00000+0  00000+0 0  9997
2 42934   0.0317 326.5203 0002023  69.7821 257.7847  1.00272726 32064
ASIASAT 9               
1 42942U 17057A   26170.27556779  .00000000  00000+0  00000+0 0  9993
2 42942   0.0413  50.2659 0002566  25.7344  52.8708  1.00262703 31883
INTELSAT 37E (IS-37E)   
1 42950U 17059A   26170.24781436 -.00000147  00000+0  00000+0 0  9994
2 42950   0.0180  12.9149 0002562 100.3269 225.4551  1.00271081 32080
BSAT-4A                 
1 42951U 17059B   26170.06433595 -.00000356  00000+0  00000+0 0  9997
2 42951   0.0340 350.3785 0004020  79.6600 330.2458  1.00270637 31819
QZS-4 (MICHIBIKI-4)     
1 42965U 17062A   26169.35012919 -.00000360  00000+0  00000+0 0  9994
2 42965  40.1070 343.4662 0745019 271.8091 274.2172  1.00250086 31812
SES-11 (ECHOSTAR 105)   
1 42967U 17063A   26170.23051882 -.00000095  00000+0  00000+0 0  9993
2 42967   0.0146 357.7340 0002768  75.8638 171.8920  1.00270935 31740
KOREASAT 5A             
1 42984U 17067A   26170.27366112 -.00000364  00000+0  00000+0 0  9994
2 42984   0.0182 307.4805 0000676 128.3585  43.3197  1.00269977 31550
ALCOMSAT 1              
1 43039U 17078A   26169.96127719 -.00000193  00000+0  00000+0 0  9990
2 43039   0.0275 266.5703 0002319 169.3599 152.4971  1.00269156 31318
SBIRS GEO-3 (USA 282)   
1 43162U 18009A   26169.79190392  .00000121  00000+0  00000+0 0  9990
2 43162   2.1857  12.2091 0001910  65.3899 315.1084  1.00272038 30869
AL YAH 3                
1 43174U 18012A   26169.96223053 -.00000163  00000+0  00000+0 0  9994
2 43174   1.5575  83.0871 0003969   2.4989 147.8789  1.00269821 30860
SES-14                  
1 43175U 18012B   26169.52901991 -.00000285  00000+0  00000+0 0  9996
2 43175   0.0195  29.8723 0000856  72.0057 307.8305  1.00275741  7031
GOES 17                 
1 43226U 18022A   26170.01972807 -.00000189  00000+0  00000+0 0  9997
2 43226   0.9428  85.6763 0000507  27.5592  71.5925  1.00269550 30447
HISPASAT 30W-6          
1 43228U 18023A   26169.46122602 -.00000223  00000+0  00000+0 0  9996
2 43228   0.0456  42.9949 0005738  27.2662 332.4700  1.00269727 30412
SUPERBIRD-B3            
1 43271U 18033A   26170.14081397 -.00000098  00000+0  00000+0 0  9997
2 43271   0.0116  32.3287 0001006  50.9428  36.7971  1.00271787 30084
HYLAS 4                 
1 43272U 18033B   26170.03081774 -.00000239  00000+0  00000+0 0  9992
2 43272   0.0176  22.6602 0001584  46.0859 176.0933  1.00281832 30087
IRNSS-1I                
1 43286U 18035A   26166.83981681  .00000062  00000+0  00000+0 0  9991
2 43286  28.7520  74.2167 0017811 181.5598   5.5147  1.00272046 30064
USA 283                 
1 43339U 18036A   26166.49948147  .00000000  00000+0  00000+0 0  9995
2 43339   0.0182   1.8047 0000468 172.3670  43.5385  1.00267801 25278
COSMOS 2526             
1 43432U 18037A   26170.27669447 -.00000351  00000+0  00000+0 0  9994
2 43432   0.0243  38.6683 0000404 156.8230 299.6832  1.00273412 29981
APSTAR-6C               
1 43450U 18041A   26168.85207074 -.00000324  00000+0  00000+0 0  9994
2 43450   0.0269  17.8003 0000917 325.0673   3.9650  1.00268661 29810
BANGABANDHUSAT-1        
1 43463U 18044A   26170.18933795 -.00000369  00000+0  00000+0 0  9995
2 43463   0.0329  88.1320 0001718 357.3428   9.1823  1.00268866 29738
SES-12                  
1 43488U 18049A   26170.12757193 -.00000276  00000+0  00000+0 0  9994
2 43488   0.0134  15.8396 0000745 281.2726 111.1686  1.00271019 29436
FENGYUN 2H              
1 43491U 18050A   26170.05322661 -.00000137  00000+0  00000+0 0  9996
2 43491   3.0369  79.0493 0001941 138.7340 148.0521  1.00269392 29450
BEIDOU-2 IGSO-7         
1 43539U 18057A   26169.91623215 -.00000038  00000+0  00000+0 0  9998
2 43539  55.1945 163.0418 0105215 238.0859 305.6783  1.00250965 29143
TELSTAR 19V             
1 43562U 18059A   26169.45463932 -.00000286  00000+0  00000+0 0  9998
2 43562   0.0192 170.6171 0002571 297.8062 258.9345  1.00274890 29150
TELKOM 4 (MERAH PUTIH)  
1 43587U 18064A   26169.81415579  .00000000  00000+0  00000+0 0  9998
2 43587   0.0163   0.6116 0001485 120.7343 186.7929  1.00266997 28890
TELSTAR 18V             
1 43611U 18069A   26170.27868780 -.00000300  00000+0  00000+0 0  9993
2 43611   0.0159 300.0143 0001744 145.3322  60.4745  1.00270279 28665
AZERSPACE 2 (IS-38)     
1 43632U 18074A   26169.90383875  .00000130  00000+0  00000+0 0  9997
2 43632   0.0173  14.6973 0001499  84.9449 177.9809  1.00273868 28468
HORIZONS-3E             
1 43633U 18074B   26169.64319762 -.00000037  00000+0  00000+0 0  9990
2 43633   0.0047 132.2714 0000757 140.4157  34.7443  1.00271097 28353
AEHF-4 (USA 288)        
1 43651U 18079A   26170.25608484 -.00000282  00000+0  00000+0 0  9998
2 43651   1.4327   4.1870 0060360 356.0081 291.9653  1.00271965 28316
BEIDOU-3 G1             
1 43683U 18085A   26170.21172103 -.00000116  00000+0  00000+0 0  9996
2 43683   2.8741  97.3095 0008054 350.1297  56.1660  1.00270307 28087
GSAT-29                 
1 43698U 18089A   26170.19092184  .00000078  00000+0  00000+0 0  9999
2 43698   0.1011 264.4173 0003850 151.8464 334.9766  1.00276225 27807
ES'HAIL 2               
1 43700U 18090A   26170.25648108  .00000138  00000+0  00000+0 0  9992
2 43700   0.0116  48.4976 0001741  75.7738 261.3229  1.00271825 27697
GEO-KOMPSAT-2A          
1 43823U 18100A   26169.92030550 -.00000350  00000+0  00000+0 0  9995
2 43823   0.0487 155.6876 0001856 291.5734 279.4528  1.00269167 27648
GSAT-11                 
1 43824U 18100B   26170.19473520 -.00000083  00000+0  00000+0 0  9998
2 43824   0.0298 239.6808 0007763 208.6394 323.2034  1.00271371 27494
GSAT-7A                 
1 43864U 18105A   26170.12115858  .00000020  00000+0  00000+0 0  9997
2 43864   0.0243  89.7661 0002005 335.3159 308.6377  1.00271575 27460
COSMOS 2533             
1 43867U 18107A   26168.69679124 -.00000043  00000+0  00000+0 0  9998
2 43867   0.0491  89.9947 0000945  42.6956  94.0812  1.00270501 27458
TJS-3                   
1 43874U 18110A   26168.80083983 -.00000223  00000+0  00000+0 0  9995
2 43874   2.5471  80.4839 0002166  82.2220 179.8966  1.00270373 27424
ZHONGXING-2D            
1 43920U 19001A   26170.27712780 -.00000343  00000+0  00000+0 0  9998
2 43920   0.0345 230.1195 0001365 104.7283 162.4352  1.00270345 54108
HELLAS-SAT 4 & SGS-1    
1 44034U 19007A   26169.61749581  .00000146  00000+0  00000+0 0  9996
2 44034   0.0763 127.4708 0004778  14.7150  25.9943  1.00270754 27384
GSAT-31                 
1 44035U 19007B   26170.18953517  .00000119  00000+0  00000+0 0  9997
2 44035   0.0599 257.3021 0001640 109.4817  16.7356  1.00275420 26986
NUSANTARA SATU          
1 44048U 19009A   26169.99507472 -.00000241  00000+0  00000+0 0  9992
2 44048   0.0409 131.9512 0004331 345.3941 294.1131  1.00270044 26789
ZHONGXING-6C            
1 44067U 19012A   26170.27721447 -.00000341  00000+0  00000+0 0  9991
2 44067   0.0795  72.6943 0014019 337.1511  87.8575  1.00272746 26761
WGS 10 (USA 291)        
1 44071U 19014A   26169.90687211  .00000041  00000+0  00000+0 0  9992
2 44071   0.0171  18.9820 0000384 260.8384  14.1022  1.00265376 26638
TIANLIAN 2-01           
1 44076U 19017A   26170.19534186 -.00000113  00000+0  00000+0 0  9996
2 44076   0.5462  83.1148 0000796  32.7699 298.8688  1.00271070 26660
ARABSAT-6A              
1 44186U 19021A   26170.25734774  .00000147  00000+0  00000+0 0  9991
2 44186   0.0508  13.2689 0001531 338.8164  38.5101  1.00274948 26179
BEIDOU-3 IGSO-1         
1 44204U 19023A   26169.60920451 -.00000224  00000+0  00000+0 0  9997
2 44204  58.6970  37.6341 0025544 225.7171 340.8879  1.00291017  7221
BEIDOU-2 G8             
1 44231U 19027A   26170.27998781 -.00000254  00000+0  00000+0 0  9990
2 44231   1.6642  74.4990 0010142 281.8932 156.4442  1.00270143 26102
YAMAL 601               
1 44307U 19031A   26170.18979517  .00000113  00000+0  00000+0 0  9998
2 44307   0.0185  32.6964 0002476  58.4358 293.6123  1.00273007 25942
AT&T T-16               
1 44333U 19034A   26169.87471625 -.00000122  00000+0  00000+0 0  9992
2 44333   0.0226  66.9403 0000810 239.0528 175.1501  1.00271203 25659
EUTELSAT 7C             
1 44334U 19034B   26169.53985329  .00000042  00000+0  00000+0 0  9997
2 44334   0.0727 176.5526 0003167 248.7431  42.8364  1.00271203  6845
BEIDOU-3 IGSO-2         
1 44337U 19035A   26169.88675894 -.00000097  00000+0  00000+0 0  9993
2 44337  55.2463 158.8478 0039664 216.5160 330.6306  1.00265889 25689
COSMOS 2539             
1 44457U 19048A   26170.11110520  .00000075  00000+0  00000+0 0  9993
2 44457   0.0391  90.7372 0000747 357.0710 231.5178  1.00273944 25248
EDRS-C                  
1 44475U 19049A   26169.92307883 -.00000270  00000+0  00000+0 0  9999
2 44475   0.0121  43.2391 0000548  20.8725 317.8232  1.00265043 25221
INTELSAT 39 (IS-39)     
1 44476U 19049B   26170.19230852  .00000028  00000+0  00000+0 0  9992
2 44476   0.0190 337.6290 0001056 354.8240  66.1468  1.00268615 25147
AMOS-17                 
1 44479U 19050A   26170.25474773  .00000103  00000+0  00000+0 0  9990
2 44479   0.0243 314.5556 0001872 170.9319 250.7085  1.00273856 25204
AEHF-5 (USA 292)        
1 44481U 19051A   26170.05599995 -.00000264  00000+0  00000+0 0  9995
2 44481   1.4522 336.3962 0066268 359.9329  44.1886  1.00273244 25288
EUTELSAT 5 WEST B       
1 44624U 19067A   26170.25032771 -.00000049  00000+0  00000+0 0  9998
2 44624   0.0628 349.5609 0003046  98.4337 264.6197  1.00269946 24458
MEV-1                   
1 44625U 19067B   26167.92963140 -.00000149  00000+0  00000+0 0  9993
2 44625   0.8740 268.9828 0002794 179.8034 307.2103  1.00269616 61744
